{
    "links": {
        "self": "http://www.neowsapp.com/rest/v1/neo/54016456?api_key=iIulBulltgU6a56xZRHN4H3l9WmuAYTsLGpBGhQ2"
    },
    "id": "54016456",
    "neo_reference_id": "54016456",
    "name": "(2020 GW)",
    "designation": "2020 GW",
    "nasa_jpl_url": "http://ssd.jpl.nasa.gov/sbdb.cgi?sstr=54016456",
    "absolute_magnitude_h": 27.246,
    "estimated_diameter": {
        "kilometers": {
            "estimated_diameter_min": 0.0094483283,
            "estimated_diameter_max": 0.0211271044
        },
        "meters": {
            "estimated_diameter_min": 9.4483283295,
            "estimated_diameter_max": 21.1271044186
        },
        "miles": {
            "estimated_diameter_min": 0.0058709172,
            "estimated_diameter_max": 0.01312777
        },
        "feet": {
            "estimated_diameter_min": 30.9984535167,
            "estimated_diameter_max": 69.3146492606
        }
    },
    "is_potentially_hazardous_asteroid": false,
    "close_approach_data": [
        {
            "close_approach_date": "2020-03-24",
            "close_approach_date_full": "2020-Mar-24 02:54",
            "epoch_date_close_approach": 1585018440000,
            "relative_velocity": {
                "kilometers_per_second": "9.4356078013",
                "kilometers_per_hour": "33968.1880847729",
                "miles_per_hour": "21106.5110907857"
            },
            "miss_distance": {
                "astronomical": "0.0165061794",
                "lunar": "6.4209037866",
                "kilometers": "2469289.280077878",
                "miles": "1534345.2101075964"
            },
            "orbiting_body": "Earth"
        }
    ],
    "orbital_data": {
        "orbit_id": "1",
        "orbit_determination_date": "2020-04-04 06:42:10",
        "first_observation_date": "2020-04-02",
        "last_observation_date": "2020-04-04",
        "data_arc_in_days": 2,
        "observations_used": 17,
        "orbit_uncertainty": "9",
        "minimum_orbit_intersection": ".00260125",
        "jupiter_tisserand_invariant": "3.976",
        "epoch_osculation": "2458942.5",
        "eccentricity": ".4792474164056589",
        "semi_major_axis": "1.760643749708368",
        "inclination": ".5802890484563307",
        "ascending_node_longitude": "87.44551675207576",
        "orbital_period": "853.3076926009138",
        "perihelion_distance": ".9168597814498614",
        "perihelion_argument": "52.74547868611407",
        "aphelion_distance": "2.604427717966875",
        "perihelion_time": "2458899.268498708327",
        "mean_anomaly": "18.23883764315383",
        "mean_motion": ".4218876767683958",
        "equinox": "J2000",
        "orbit_class": {
            "orbit_class_type": "APO",
            "orbit_class_description": "Near-Earth asteroid orbits which cross the Earth’s orbit similar to that of 1862 Apollo",
            "orbit_class_range": "a (semi-major axis) > 1.0 AU; q (perihelion) < 1.017 AU"
        }
    },
    "is_sentry_object": false
}